NORAD_CAT_ID,OBJECT_NAME,OBJECT_TYPE,EPOCH,MEAN_MOTION,ECCENTRICITY,INCLINATION,RA_OF_ASC_NODE,ARG_OF_PERICENTER,MEAN_ANOMALY,BSTAR,MEAN_MOTION_DOT,MEAN_MOTION_DDOT,TLE_LINE0,TLE_LINE1,TLE_LINE2,SEMIMAJOR_AXIS,PERIOD,APOGEE,PERIGEE,DECAYED
55756.0,STARLINK-5614,PAYLOAD,2024-03-22 21:07:37,14.98298066,0.0003229,69.9978,251.5957,270.5862,89.4927,-0.00032269,-3.938e-05,0.0,0 STARLINK-5614,1 55756U 23028R   24082.88030070 -.00003938  00000-0 -32269-3 0  9995,2 55756  69.9978 251.5957 0003229 270.5862  89.4927 14.98298066 58676,6950.292,96.109,574.401,569.912,0.0
55756.0,STARLINK-5614,PAYLOAD,2024-03-23 13:08:54,14.98346945,0.000267,69.9989,249.9138,282.4144,77.6716,0.00018011,2.058e-05,0.0,0 STARLINK-5614,1 55756U 23028R   24083.54785780  .00002058  00000-0  18011-3 0  9993,2 55756  69.9989 249.9138 0002670 282.4144  77.6716 14.98346945 58770,6950.14,96.106,573.861,570.15,0.0
55756.0,STARLINK-5614,PAYLOAD,2024-03-23 21:09:34,14.98353678,0.0002441,69.9992,249.0723,278.3772,81.711,0.00022013,2.536e-05,0.0,0 STARLINK-5614,1 55756U 23028R   24083.88164829  .00002536  00000-0  22013-3 0  9993,2 55756  69.9992 249.0723 0002441 278.3772  81.7110 14.98353678 58823,6950.12,96.105,573.681,570.288,0.0
55756.0,STARLINK-5614,PAYLOAD,2024-03-24 13:10:57,14.98326573,0.0002599,69.9992,247.3892,278.8874,81.1991,-6.1229e-05,-8.23e-06,0.0,0 STARLINK-5614,1 55756U 23028R   24084.54927118 -.00000823  00000-0 -61229-4 0  9997,2 55756  69.9992 247.3892 0002599 278.8874  81.1991 14.98326573 58929,6950.203,96.107,573.875,570.262,0.0
55756.0,STARLINK-5614,PAYLOAD,2024-03-24 14:47:05,14.98326903,0.0002723,69.9985,247.2206,277.9084,82.1766,-7.9865e-05,-1.046e-05,0.0,0 STARLINK-5614,1 55756U 23028R   24084.61603138 -.00001046  00000-0 -79865-4 0  9991,2 55756  69.9985 247.2206 0002723 277.9084  82.1766 14.98326903 58930,6950.202,96.107,573.96,570.175,0.0
55756.0,STARLINK-5614,PAYLOAD,2024-03-24 21:11:37,14.9832888,0.0002458,69.9994,246.5479,274.4815,85.6063,1.6907e-06,-7.3e-07,0.0,0 STARLINK-5614,1 55756U 23028R   24084.88306954 -.00000073  00000-0  16907-5 0  9993,2 55756  69.9994 246.5479 0002458 274.4815  85.6063 14.98328880 58971,6950.196,96.107,573.77,570.353,0.0
55756.0,STARLINK-5614,PAYLOAD,2024-03-25 03:36:10,14.98308049,0.0002269,69.9994,245.8749,283.0967,76.9938,0.00031852,3.707e-05,0.0,0 STARLINK-5614,1 55756U 23028R   24085.15011699  .00003707  00000-0  31852-3 0  9993,2 55756  69.9994 245.8749 0002269 283.0967  76.9938 14.98308049 59012,6950.261,96.108,573.703,570.549,0.0
55756.0,STARLINK-5614,PAYLOAD,2024-03-25 13:12:57,14.98338222,0.0002004,69.9995,244.8653,280.3231,79.7702,-0.00016031,-2.005e-05,0.0,0 STARLINK-5614,1 55756U 23028R   24085.55066887 -.00002005  00000-0 -16031-3 0  9990,2 55756  69.9995 244.8653 0002004 280.3231  79.7702 14.98338222 59079,6950.167,96.106,573.425,570.64,0.0
55756.0,STARLINK-5614,PAYLOAD,2024-03-25 19:37:29,14.98339061,0.0001954,69.9998,244.1929,274.7149,85.3787,-0.00011633,-1.481e-05,0.0,0 STARLINK-5614,1 55756U 23028R   24085.81770591 -.00001481  00000-0 -11633-3 0  9993,2 55756  69.9998 244.1929 0001954 274.7149  85.3787 14.98339061 59112,6950.165,96.106,573.388,570.672,0.0
55756.0,STARLINK-5614,PAYLOAD,2024-03-26 13:14:59,14.98315114,0.0001796,70.0001,242.341,268.301,91.7943,4.2674e-05,4.16e-06,0.0,0 STARLINK-5614,1 55756U 23028R   24086.55207913  .00000416  00000-0  42674-4 0  9993,2 55756  70.0001 242.3410 0001796 268.3010  91.7943 14.98315114 59225,6950.239,96.108,573.352,570.856,0.0
55756.0,STARLINK-5614,PAYLOAD,2024-03-26 14:51:07,14.98313288,0.0001801,70.0002,242.1726,268.3954,91.6999,5.251e-05,5.33e-06,0.0,0 STARLINK-5614,1 55756U 23028R   24086.61884063  .00000533  00000-0  52510-4 0  9997,2 55756  70.0002 242.1726 0001801 268.3954  91.6999 14.98313288 59239,6950.245,96.108,573.361,570.858,0.0
55756.0,STARLINK-5614,PAYLOAD,2024-03-26 19:39:32,14.98316083,0.0001936,70.0009,241.6669,264.4542,95.6397,-1.2679e-05,-2.44e-06,0.0,0 STARLINK-5614,1 55756U 23028R   24086.81912173 -.00000244  00000-0 -12679-4 0  9996,2 55756  70.0009 241.6669 0001936 264.4542  95.6397 14.98316083 59260,6950.236,96.108,573.446,570.755,0.0
55756.0,STARLINK-5614,PAYLOAD,2024-03-27 03:40:12,14.98323416,0.0002127,69.9999,240.8261,270.6078,89.4837,6.9054e-05,7.31e-06,0.0,0 STARLINK-5614,1 55756U 23028R   24087.15291746  .00000731  00000-0  69054-4 0  9998,2 55756  69.9999 240.8261 0002127 270.6078  89.4837 14.98323416 59314,6950.213,96.107,573.557,570.6,0.0
55756.0,STARLINK-5614,PAYLOAD,2024-03-27 14:53:08,14.98330979,0.0002164,70.0,239.6479,271.4332,88.658,0.00012315,1.377e-05,0.0,0 STARLINK-5614,1 55756U 23028R   24087.62023201  .00001377  00000-0  12315-3 0  9993,2 55756  70.0000 239.6479 0002164 271.4332  88.6580 14.98330979 59385,6950.19,96.107,573.559,570.551,0.0
55756.0,STARLINK-5614,PAYLOAD,2024-03-27 19:41:31,14.98336634,0.0002203,69.9997,239.1425,270.7879,89.3027,0.00015953,1.811e-05,0.0,0 STARLINK-5614,1 55756U 23028R   24087.82050742  .00001811  00000-0  15953-3 0  9999,2 55756  69.9997 239.1425 0002203 270.7879  89.3027 14.98336634 59417,6950.172,96.107,573.568,570.506,0.0
55756.0,STARLINK-5614,PAYLOAD,2024-03-28 03:42:12,14.98331977,0.0002223,70.0,238.3005,276.7084,83.3822,4.7875e-05,4.78e-06,0.0,0 STARLINK-5614,1 55756U 23028R   24088.15431277  .00000478  00000-0  47875-4 0  9999,2 55756  70.0000 238.3005 0002223 276.7084  83.3822 14.98331977 59463,6950.187,96.107,573.597,570.507,0.0
55756.0,STARLINK-5614,PAYLOAD,2024-03-28 11:42:53,14.98325019,0.0002267,70.0,237.4598,272.3694,87.7205,9.6309e-05,1.056e-05,0.0,0 STARLINK-5614,1 55756U 23028R   24088.48811752  .00001056  00000-0  96309-4 0  9994,2 55756  70.0000 237.4598 0002267 272.3694  87.7205 14.98325019 59516,6950.208,96.107,573.649,570.498,0.0
55756.0,STARLINK-5614,PAYLOAD,2024-03-28 19:43:33,14.98329263,0.0002139,70.0002,236.6173,269.4219,90.6695,0.00014662,1.657e-05,0.0,0 STARLINK-5614,1 55756U 23028R   24088.82191391  .00001657  00000-0  14662-3 0  9990,2 55756  70.0002 236.6173 0002139 269.4219  90.6695 14.98329263 59562,6950.195,96.107,573.547,570.574,0.0
55756.0,STARLINK-5614,PAYLOAD,2024-03-29 11:44:54,14.98324013,0.0002194,70.0004,234.934,268.9589,91.1318,0.0002192,2.523e-05,0.0,0 STARLINK-5614,1 55756U 23028R   24089.48951511  .00002523  00000-0  21920-3 0  9999,2 55756  70.0004 234.9340 0002194 268.9589  91.1318 14.98324013 59663,6950.211,96.107,573.601,570.552,0.0
55756.0,STARLINK-5614,PAYLOAD,2024-03-29 16:33:17,14.98339151,0.0002117,70.0004,234.4291,269.8394,90.2522,2.7233e-05,2.32e-06,0.0,0 STARLINK-5614,1 55756U 23028R   24089.68978896  .00000232  00000-0  27233-4 0  9995,2 55756  70.0004 234.4291 0002117 269.8394  90.2522 14.98339151 59691,6950.165,96.106,573.501,570.558,0.0
55756.0,STARLINK-5614,PAYLOAD,2024-03-30 13:23:03,14.98328812,0.0002179,70.0007,232.2415,270.1334,89.9575,1.5718e-06,-7.4e-07,0.0,0 STARLINK-5614,1 55756U 23028R   24090.55767477 -.00000074  00000-0  15718-5 0  9995,2 55756  70.0007 232.2415 0002179 270.1334  89.9575 14.98328812 59825,6950.197,96.107,573.576,570.547,0.0
55756.0,STARLINK-5614,PAYLOAD,2024-03-31 02:12:05,14.98351024,0.000218,70.0011,230.8959,259.6098,100.4815,0.00021299,2.451e-05,0.0,0 STARLINK-5614,1 55756U 23028R   24091.09173013  .00002451  00000-0  21299-3 0  9991,2 55756  70.0011 230.8959 0002180 259.6098 100.4815 14.98351024 59904,6950.128,96.106,573.508,570.478,0.0
55756.0,STARLINK-5614,PAYLOAD,2024-03-31 13:25:02,14.98336059,0.0003584,69.9993,229.7166,284.446,75.6301,2.3082e-05,1.82e-06,0.0,0 STARLINK-5614,1 55756U 23028R   24091.55905674  .00000182  00000-0  23082-4 0  9990,2 55756  69.9993 229.7166 0003584 284.4460  75.6301 14.98336059 59976,6950.174,96.107,574.53,569.548,0.0
55756.0,STARLINK-5614,PAYLOAD,2024-03-31 15:01:10,14.98338507,0.0002816,69.9997,229.5478,268.6005,91.4832,3.1487e-05,2.83e-06,0.0,0 STARLINK-5614,1 55756U 23028R   24091.62581369  .00000283  00000-0  31487-4 0  9999,2 55756  69.9997 229.5478 0002816 268.6005  91.4832 14.98338507 59986,6950.167,96.106,573.989,570.074,0.0
55756.0,STARLINK-5614,PAYLOAD,2024-03-31 19:49:28,14.98405232,0.0002683,70.0005,229.0435,265.6175,94.4678,0.00074786,8.859e-05,0.0,0 STARLINK-5614,1 55756U 23028R   24091.82602784  .00008859  00000-0  74786-3 0  9991,2 55756  70.0005 229.0435 0002683 265.6175  94.4678 14.98405232 60011,6949.96,96.102,573.69,569.961,0.0
55756.0,STARLINK-5614,PAYLOAD,2024-04-01 02:14:06,14.98334907,0.0002458,70.0005,228.3698,277.7901,82.2979,4.9817e-06,-3.3e-07,0.0,0 STARLINK-5614,1 55756U 23028R   24092.09312618 -.00000033  00000-0  49817-5 0  9991,2 55756  70.0005 228.3698 0002458 277.7901  82.2979 14.98334907 60058,6950.178,96.107,573.751,570.334,0.0
55756.0,STARLINK-5614,PAYLOAD,2024-04-01 11:50:55,14.98316354,0.0002732,70.0011,227.3604,270.4522,89.6324,-0.00026932,-3.304e-05,0.0,0 STARLINK-5614,1 55756U 23028R   24092.49370334 -.00003304  00000-0 -26932-3 0  9990,2 55756  70.0011 227.3604 0002732 270.4522  89.6324 14.98316354 60113,6950.235,96.108,573.999,570.201,0.0
55756.0,STARLINK-5614,PAYLOAD,2024-04-01 15:03:11,14.98316378,0.000284,70.0009,227.0244,272.1723,87.9111,-0.00018007,-2.24e-05,0.0,0 STARLINK-5614,1 55756U 23028R   24092.62722136 -.00002240  00000-0 -18007-3 0  9998,2 55756  70.0009 227.0244 0002840 272.1723  87.9111 14.98316378 60132,6950.235,96.108,574.074,570.126,0.0
55756.0,STARLINK-5614,PAYLOAD,2024-04-02 11:52:57,14.98321983,0.0003159,70.0019,224.8355,267.7478,92.3319,-0.00046609,-5.649e-05,0.0,0 STARLINK-5614,1 55756U 23028R   24093.49510631 -.00005649  00000-0 -46609-3 0  9994,2 55756  70.0019 224.8355 0003159 267.7478  92.3319 14.98321983 60264,6950.218,96.108,574.278,569.887,0.0
55756.0,STARLINK-5614,PAYLOAD,2024-04-02 15:05:13,14.98312288,0.0003067,70.0,224.4976,268.0585,92.0223,-0.00019004,-2.359e-05,0.0,0 STARLINK-5614,1 55756U 23028R   24093.62862596 -.00002359  00000-0 -19004-3 0  9993,2 55756  70.0000 224.4976 0003067 268.0585  92.0223 14.98312288 60281,6950.248,96.108,574.244,569.981,0.0
